NORAD_CAT_ID,OBJECT_NAME,OBJECT_TYPE,EPOCH,MEAN_MOTION,ECCENTRICITY,INCLINATION,RA_OF_ASC_NODE,ARG_OF_PERICENTER,MEAN_ANOMALY,BSTAR,MEAN_MOTION_DOT,MEAN_MOTION_DDOT,TLE_LINE0,TLE_LINE1,TLE_LINE2,SEMIMAJOR_AXIS,PERIOD,APOGEE,PERIGEE,DECAYED
53180.0,STARLINK-4258,PAYLOAD,2022-07-21 18:00:00,15.89496213,0.0038448,53.2173,26.5829,50.8131,53.5095,-0.0041091999999999,-0.01310317,0.00048818,0 STARLINK-4258,1 53180U 22083BA  22202.75001157 -.01310317  48818-3 -41092-2 0  9994,2 53180  53.2173  26.5829 0038448  50.8131  53.5095 15.89496213  1306,6681.831,90.595,329.38699999999994,278.006,0.0
53180.0,STARLINK-4258,PAYLOAD,2022-07-22 06:00:00,15.88177297,0.0032234,53.2177,24.0495,51.8907,34.0358,-0.0044773999999999,-0.01308388,0.00048093,0 STARLINK-4258,1 53180U 22083BA  22203.25001157 -.01308388  48093-3 -44774-2 0  9990,2 53180  53.2177  24.0495 0032234  51.8907  34.0358 15.88177297  1371,6685.53,90.67,328.945,285.845,0.0
53180.0,STARLINK-4258,PAYLOAD,2022-07-22 12:00:00,15.87518317,0.002953,53.2177,22.7848,51.2886,24.5481,-0.0046615,-0.0130809,0.00047782,0 STARLINK-4258,1 53180U 22083BA  22203.50001157 -.01308090  47782-3 -46615-2 0  9998,2 53180  53.2177  22.7848 0029530  51.2886  24.5481 15.87518317  1410,6687.38,90.708,328.99300000000005,289.497,0.0
53180.0,STARLINK-4258,PAYLOAD,2022-07-22 20:00:01,15.86665898,0.0026086,53.2175,21.1033,50.2388,131.2104,-0.0051121,-0.01362995,0.00051102,0 STARLINK-4258,1 53180U 22083BA  22203.83334491 -.01362995  51102-3 -51121-2 0  9997,2 53180  53.2175  21.1033 0026086  50.2388 131.2104 15.86665898  1476,6689.775,90.756,329.091,294.189,0.0
53180.0,STARLINK-4258,PAYLOAD,2022-07-22 22:00:00,15.86455938,0.0024753,53.2174,20.683000000000003,51.0465,246.6401,-0.0052638,-0.01384733,0.00052498,0 STARLINK-4258,1 53180U 22083BA  22203.91667824 -.01384733  52498-3 -52638-2 0  9992,2 53180  53.2174  20.6830 0024753  51.0465 246.6401 15.86455938  1303,6690.365,90.768,328.791,295.67,0.0
53180.0,STARLINK-4258,PAYLOAD,2022-07-23 04:00:00,15.85801658,0.0022244,53.2174,19.4205,52.0331,233.9791,-0.005503,-0.01394863,0.00052888,0 STARLINK-4258,1 53180U 22083BA  22204.16667824 -.01394863  52888-3 -55030-2 0  9997,2 53180  53.2174  19.4205 0022244  52.0331 233.9791 15.85801658  1529,6692.205,90.806,328.957,299.184,0.0
53180.0,STARLINK-4258,PAYLOAD,2022-07-23 14:00:01,15.8467609,0.0018932,53.2177,17.3211,50.1618,95.1493,-0.0056015,-0.0118194,0.0,0 STARLINK-4258,1 53180U 22083BA  22204.58335648 -.01181940  00000-0 -56015-2 0  9999,2 53180  53.2177  17.3211 0018932  50.1618  95.1493 15.84676090  1595,6695.374,90.87,329.915,304.563,0.0
53180.0,STARLINK-4258,PAYLOAD,2022-07-23 22:00:00,15.83820919,0.0015733,53.2176,15.6463,51.3076,196.11900000000003,-0.0060828,-0.01241867,0.0,0 STARLINK-4258,1 53180U 22083BA  22204.91667824 -.01241867  00000-0 -60828-2 0  9992,2 53180  53.2176  15.6463 0015733  51.3076 196.1190 15.83820919  1306,6697.784000000002,90.919,330.186,309.111,0.0
53180.0,STARLINK-4258,PAYLOAD,2022-07-24 04:00:00,15.83164974,0.0013220999999999,53.2174,14.3886,48.9792,184.3975,-0.0063251,-0.01245804,0.0,0 STARLINK-4258,1 53180U 22083BA  22205.16667824 -.01245804  00000-0 -63251-2 0  9998,2 53180  53.2174  14.3886 0013221  48.9792 184.3975 15.83164974  1689,6699.634,90.957,330.356,312.641,0.0
53180.0,STARLINK-4258,PAYLOAD,2022-07-24 14:00:01,15.82032443,0.0009166,53.2175,12.2979,41.8425,46.8088,-0.0063457999999999,-0.01185287,0.0,0 STARLINK-4258,1 53180U 22083BA  22205.58334491 -.01185287  00000-0 -63458-2 0  9992,2 53180  53.2175  12.2979 0009166  41.8425  46.8088 15.82032443  1308,6702.831,91.022,330.84,318.552,0.0
53180.0,STARLINK-4258,PAYLOAD,2022-07-24 22:00:00,15.81169386,0.0006178999999999,53.2173,10.6293,33.3268,154.3404,-0.0067802999999999,-0.01209541,0.0,0 STARLINK-4258,1 53180U 22083BA  22205.91667824 -.01209541  00000-0 -67803-2 0  9996,2 53180  53.2173  10.6293 0006179  33.3268 154.3404 15.81169386  1302,6705.27,91.072,331.278,322.991,0.0
53180.0,STARLINK-4258,PAYLOAD,2022-07-25 14:00:01,15.79414059,0.0003916,53.2178,7.2939,0.8525,21.6917,-0.0073863,-0.01212153,0.0,0 STARLINK-4258,1 53180U 22083BA  22206.58334491 -.01212153  00000-0 -73863-2 0  9997,2 53180  53.2178   7.2939 0003916   0.8525  21.6917 15.79414059  1905,6710.236999999999,91.173,334.7290000000001,329.474,0.0
53180.0,STARLINK-4258,PAYLOAD,2022-07-25 22:00:00,15.7853017,0.000375,53.2173,5.6316,3.5035,114.8957,-0.0076251,-0.01202773,0.0,0 STARLINK-4258,1 53180U 22083BA  22206.91667824 -.01202773  00000-0 -76251-2 0  9994,2 53180  53.2173   5.6316 0003750   3.5035 114.8957 15.78530170  1308,6712.741,91.224,337.124,332.089,0.0
53180.0,STARLINK-4258,PAYLOAD,2022-07-26 04:00:01,15.778734599999998,0.000394,53.2174,4.3835,0.6412,99.0219,-0.0078871,-0.01207139,0.0,0 STARLINK-4258,1 53180U 22083BA  22207.16668981 -.01207139  00000-0 -78871-2 0  9998,2 53180  53.2174   4.3835 0003940   0.6412  99.0219 15.77873460  2003,6714.604,91.262,339.1140000000001,333.8230000000001,0.0
53180.0,STARLINK-4258,PAYLOAD,2022-07-26 14:00:01,15.76774859,0.0004123999999999,53.2174,2.3095,351.7722,315.1671,-0.0082791,-0.01206229,0.0,0 STARLINK-4258,1 53180U 22083BA  22207.58334491 -.01206229  00000-0 -82791-2 0  9995,2 53180  53.2174   2.3095 0004124 351.7722 315.1671 15.76774859  1305,6717.722,91.326,342.358,336.81699999999995,0.0
53180.0,STARLINK-4258,PAYLOAD,2022-07-26 20:00:01,15.76118479,0.000434,53.2174,1.0678,357.8656,288.6853,-0.0085562,-0.01210251,0.0,0 STARLINK-4258,1 53180U 22083BA  22207.83334491 -.01210251  00000-0 -85562-2 0  9992,2 53180  53.2174   1.0678 0004340 357.8656 288.6853 15.76118479  2106,6719.587,91.364,344.369,338.536,0.0
53180.0,STARLINK-4258,PAYLOAD,2022-07-26 22:00:00,15.75901187,0.0001636999999999,53.2171,0.6535,309.1886,90.4336,-0.0086626,-0.01211435,0.0,0 STARLINK-4258,1 53180U 22083BA  22207.91667824 -.01211435  00000-0 -86626-2 0  9997,2 53180  53.2171   0.6535 0001637 309.1886  90.4336 15.75901187  1302,6720.205,91.376,343.17,340.97,0.0
53180.0,STARLINK-4258,PAYLOAD,2022-07-27 14:00:01,15.74000399,0.0001841999999999,53.2177,357.3445,334.4278,247.426,-0.006239,-0.00823287,0.0,0 STARLINK-4258,1 53180U 22083BA  22208.58334491 -.00823287  00000-0 -62390-2 0  9997,2 53180  53.2177 357.3445 0001842 334.4278 247.4260 15.74000399  1308,6725.614000000001,91.487,348.718,346.24,0.0
53180.0,STARLINK-4258,PAYLOAD,2022-07-27 22:00:00,15.7326351,0.0002034,53.2172,355.6946,17.1358,294.2621,-0.00068134,-0.00095433,0.0,0 STARLINK-4258,1 53180U 22083BA  22208.91667824 -.00095433  00000-0 -68134-3 0  9990,2 53180  53.2172 355.6946 0002034  17.1358 294.2621 15.73263510  2271,6727.714,91.529,350.9480000000001,348.211,0.0
53180.0,STARLINK-4258,PAYLOAD,2022-07-28 14:00:01,15.73258149,0.0002263,53.2181,352.3953,281.8534,207.4703,-0.00045931,-0.00064757,0.0,0 STARLINK-4258,1 53180U 22083BA  22209.58334491 -.00064757  00000-0 -45931-3 0  9990,2 53180  53.2181 352.3953 0002263 281.8534 207.4703 15.73258149  1305,6727.729,91.53,351.117,348.07199999999995,0.0
53180.0,STARLINK-4258,PAYLOAD,2022-07-28 22:00:00,15.73192829,0.0002255999999999,53.218,350.7466,289.1651,289.1355,0.00021896,0.00030212,0.0,0 STARLINK-4258,1 53180U 22083BA  22209.91667824  .00030212  00000-0  21896-3 0  9997,2 53180  53.2180 350.7466 0002256 289.1651 289.1355 15.73192829  2435,6727.916,91.534,351.298,348.26300000000015,0.0
53180.0,STARLINK-4258,PAYLOAD,2022-07-29 14:00:01,15.73268438,0.0002054,53.2187,347.44699999999995,293.963,102.1884,-0.00067602,-0.00094721,0.0,0 STARLINK-4258,1 53180U 22083BA  22210.58334491 -.00094721  00000-0 -67602-3 0  9995,2 53180  53.2187 347.4470 0002054 293.9630 102.1884 15.73268438  2538,6727.7,91.529,350.94699999999995,348.18300000000005,0.0
53180.0,STARLINK-4258,PAYLOAD,2022-07-29 22:00:00,15.73182729,0.0002029,53.2182,345.7981,300.7239,184.3958,0.00016297,0.00022296,0.0,0 STARLINK-4258,1 53180U 22083BA  22210.91667824  .00022296  00000-0  16297-3 0  9991,2 53180  53.2182 345.7981 0002029 300.7239 184.3958 15.73182729  1301,6727.944,91.534,351.175,348.444,0.0
53180.0,STARLINK-4258,PAYLOAD,2022-07-30 06:00:00,15.73173992,0.0001943999999999,53.2183,344.1468,294.765,279.2788,0.00052639,0.00073827,0.0,0 STARLINK-4258,1 53180U 22083BA  22211.25001157  .00073827  00000-0  52639-3 0  9996,2 53180  53.2183 344.1468 0001944 294.7650 279.2788 15.73173992  2644,6727.969,91.535,351.142,348.526,0.0
53180.0,STARLINK-4258,PAYLOAD,2022-07-30 14:00:01,15.73260537,0.0001924,53.2184,342.4991,302.0862,0.8801,-0.00078293,-0.00109374,0.0,0 STARLINK-4258,1 53180U 22083BA  22211.58334491 -.00109374  00000-0 -78293-3 0  9995,2 53180  53.2184 342.4991 0001924 302.0862   0.8801 15.73260537  1301,6727.723000000001,91.53,350.88199999999995,348.293,0.0
53180.0,STARLINK-4258,PAYLOAD,2022-07-30 20:00:01,15.73163325,0.0002013,53.2185,341.2629,309.2845,330.4118,0.00039193,0.00054659,0.0,0 STARLINK-4258,1 53180U 22083BA  22211.83334491  .00054659  00000-0  39193-3 0  9992,2 53180  53.2185 341.2629 0002013 309.2845 330.4118 15.73163325  2735,6728.0,91.535,351.219,348.51,0.0
53180.0,STARLINK-4258,PAYLOAD,2022-07-30 22:00:00,15.73182925,0.0001992,53.2184,340.8501,309.663,82.2541,0.00017494,0.00023984,0.0,0 STARLINK-4258,1 53180U 22083BA  22211.91667824  .00023984  00000-0  17494-3 0  9997,2 53180  53.2184 340.8501 0001992 309.6630  82.2541 15.73182925  1300,6727.944,91.534,351.149,348.469,0.0
53180.0,STARLINK-4258,PAYLOAD,2022-07-31 06:00:02,15.73208546,0.0001875,53.2174,339.1968,302.4062,178.4269,-5.0805e-05,-7.747e-05,0.0,0 STARLINK-4258,1 53180U 22083BA  22212.25002315 -.00007747  00000-0 -50805-4 0  9998,2 53180  53.2174 339.1968 0001875 302.4062 178.4269 15.73208546  2806,6727.871,91.533,350.997,348.474,0.0
53180.0,STARLINK-4258,PAYLOAD,2022-07-31 14:00:01,15.73219586,0.0001937,53.2189,337.5509,315.4190000000001,254.3764,4.731e-05,6.029e-05,0.0,0 STARLINK-4258,1 53180U 22083BA  22212.58334491  .00006029  00000-0  47310-4 0  9994,2 53180  53.2189 337.5509 0001937 315.4190 254.3764 15.73219586  2855,6727.839,91.532,351.0080000000001,348.401,0.0
